CCSDS_OMM_VERS = 2.0
CREATION_DATE  = 
ORIGINATOR     = 

OBJECT_NAME    = AQUA
OBJECT_ID      = 2002-022A
CENTER_NAME    = EARTH
REF_FRAME      = TEME
TIME_SYSTEM    = UTC
MEAN_ELEMENT_THEORY = SGP/SGP4

EPOCH          = 2026-03-17T21:22:36.706368
MEAN_MOTION    = 14.61996341
ECCENTRICITY   = .0000705
INCLINATION    = 98.4188
RA_OF_ASC_NODE = 44.4058
ARG_OF_PERICENTER = 108.6502
MEAN_ANOMALY   = 277.1715

EPHEMERIS_TYPE = 0
CLASSIFICATION_TYPE = U
NORAD_CAT_ID   = 27424
ELEMENT_SET_NO = 999
REV_AT_EPOCH   = 26993
BSTAR          = .18458E-3
MEAN_MOTION_DOT = .876E-5
MEAN_MOTION_DDOT = 0

CCSDS_OMM_VERS = 2.0
CREATION_DATE  = 
ORIGINATOR     = 

OBJECT_NAME    = CZ-4B R/B
OBJECT_ID      = 2002-024C
CENTER_NAME    = EARTH
REF_FRAME      = TEME
TIME_SYSTEM    = UTC
MEAN_ELEMENT_THEORY = SGP/SGP4

EPOCH          = 2026-03-17T10:03:18.302112
MEAN_MOTION    = 14.14548900
ECCENTRICITY   = .0050102
INCLINATION    = 98.8822
RA_OF_ASC_NODE = 129.7861
ARG_OF_PERICENTER = 2.3402
MEAN_ANOMALY   = 8.0799

EPHEMERIS_TYPE = 0
CLASSIFICATION_TYPE = U
NORAD_CAT_ID   = 27432
ELEMENT_SET_NO = 999
REV_AT_EPOCH   = 23033
BSTAR          = .38969627E-4
MEAN_MOTION_DOT = .31E-6
MEAN_MOTION_DDOT = 0

CCSDS_OMM_VERS = 2.0
CREATION_DATE  = 
ORIGINATOR     = 

OBJECT_NAME    = MIDORI II (ADEOS-II)
OBJECT_ID      = 2002-056A
CENTER_NAME    = EARTH
REF_FRAME      = TEME
TIME_SYSTEM    = UTC
MEAN_ELEMENT_THEORY = SGP/SGP4

EPOCH          = 2026-03-17T08:44:27.021696
MEAN_MOTION    = 14.29291076
ECCENTRICITY   = .00012942
INCLINATION    = 98.7781
RA_OF_ASC_NODE = 34.8954
ARG_OF_PERICENTER = 33.7265
MEAN_ANOMALY   = 326.3998

EPHEMERIS_TYPE = 0
CLASSIFICATION_TYPE = U
NORAD_CAT_ID   = 27597
ELEMENT_SET_NO = 999
REV_AT_EPOCH   = 21139
BSTAR          = .12399447E-3
MEAN_MOTION_DOT = .27E-5
MEAN_MOTION_DDOT = 0

CCSDS_OMM_VERS = 2.0
CREATION_DATE  = 
ORIGINATOR     = 

OBJECT_NAME    = H-2A R/B
OBJECT_ID      = 2002-056E
CENTER_NAME    = EARTH
REF_FRAME      = TEME
TIME_SYSTEM    = UTC
MEAN_ELEMENT_THEORY = SGP/SGP4

EPOCH          = 2026-03-17T09:27:22.465728
MEAN_MOTION    = 14.33765774
ECCENTRICITY   = .00709378
INCLINATION    = 98.3216
RA_OF_ASC_NODE = 36.4669
ARG_OF_PERICENTER = 137.8889
MEAN_ANOMALY   = 335.5025

EPHEMERIS_TYPE = 0
CLASSIFICATION_TYPE = U
NORAD_CAT_ID   = 27601
ELEMENT_SET_NO = 999
REV_AT_EPOCH   = 21521
BSTAR          = .93951737E-4
MEAN_MOTION_DOT = .227E-5
MEAN_MOTION_DDOT = 0

CCSDS_OMM_VERS = 2.0
CREATION_DATE  = 
ORIGINATOR     = 

OBJECT_NAME    = CZ-4B R/B
OBJECT_ID      = 2003-049C
CENTER_NAME    = EARTH
REF_FRAME      = TEME
TIME_SYSTEM    = UTC
MEAN_ELEMENT_THEORY = SGP/SGP4

EPOCH          = 2026-03-17T20:12:24.491232
MEAN_MOTION    = 14.55027789
ECCENTRICITY   = .0047618
INCLINATION    = 98.6886
RA_OF_ASC_NODE = 72.0671
ARG_OF_PERICENTER = 205.5905
MEAN_ANOMALY   = 154.2934

EPHEMERIS_TYPE = 0
CLASSIFICATION_TYPE = U
NORAD_CAT_ID   = 28059
ELEMENT_SET_NO = 999
REV_AT_EPOCH   = 18778
BSTAR          = .82547E-4
MEAN_MOTION_DOT = .309E-5
MEAN_MOTION_DDOT = 0

CCSDS_OMM_VERS = 2.0
CREATION_DATE  = 
ORIGINATOR     = 

OBJECT_NAME    = CZ-2C R/B
OBJECT_ID      = 2004-012C
CENTER_NAME    = EARTH
REF_FRAME      = TEME
TIME_SYSTEM    = UTC
MEAN_ELEMENT_THEORY = SGP/SGP4

EPOCH          = 2026-03-17T14:26:17.235168
MEAN_MOTION    = 15.65474299
ECCENTRICITY   = .00129636
INCLINATION    = 97.7215
RA_OF_ASC_NODE = 142.6489
ARG_OF_PERICENTER = 277.3923
MEAN_ANOMALY   = 82.5862

EPHEMERIS_TYPE = 0
CLASSIFICATION_TYPE = U
NORAD_CAT_ID   = 28222
ELEMENT_SET_NO = 999
REV_AT_EPOCH   = 20551
BSTAR          = .47736226E-3
MEAN_MOTION_DOT = .47966E-3
MEAN_MOTION_DDOT = 0

CCSDS_OMM_VERS = 2.0
CREATION_DATE  = 
ORIGINATOR     = 

OBJECT_NAME    = SL-16 R/B
OBJECT_ID      = 2004-021B
CENTER_NAME    = EARTH
REF_FRAME      = TEME
TIME_SYSTEM    = UTC
MEAN_ELEMENT_THEORY = SGP/SGP4

EPOCH          = 2026-03-17T19:13:34.942368
MEAN_MOTION    = 14.14594515
ECCENTRICITY   = .0004473
INCLINATION    = 70.9997
RA_OF_ASC_NODE = 215.4694
ARG_OF_PERICENTER = 358.9291
MEAN_ANOMALY   = 1.1821

EPHEMERIS_TYPE = 0
CLASSIFICATION_TYPE = U
NORAD_CAT_ID   = 28353
ELEMENT_SET_NO = 999
REV_AT_EPOCH   = 12398
BSTAR          = -.11065E-3
MEAN_MOTION_DOT = -.26E-5
MEAN_MOTION_DDOT = 0

CCSDS_OMM_VERS = 2.0
CREATION_DATE  = 
ORIGINATOR     = 

OBJECT_NAME    = CZ-4B R/B
OBJECT_ID      = 2004-035C
CENTER_NAME    = EARTH
REF_FRAME      = TEME
TIME_SYSTEM    = UTC
MEAN_ELEMENT_THEORY = SGP/SGP4

EPOCH          = 2026-03-17T19:51:13.569696
MEAN_MOTION    = 15.29206857
ECCENTRICITY   = .0030225
INCLINATION    = 97.3484
RA_OF_ASC_NODE = 110.9725
ARG_OF_PERICENTER = 301.3394
MEAN_ANOMALY   = 58.4889

EPHEMERIS_TYPE = 0
CLASSIFICATION_TYPE = U
NORAD_CAT_ID   = 28415
ELEMENT_SET_NO = 999
REV_AT_EPOCH   = 18115
BSTAR          = .21138E-3
MEAN_MOTION_DOT = .5995E-4
MEAN_MOTION_DDOT = 0

CCSDS_OMM_VERS = 2.0
CREATION_DATE  = 
ORIGINATOR     = 

OBJECT_NAME    = CZ-2C R/B
OBJECT_ID      = 2004-046B
CENTER_NAME    = EARTH
REF_FRAME      = TEME
TIME_SYSTEM    = UTC
MEAN_ELEMENT_THEORY = SGP/SGP4

EPOCH          = 2026-03-17T18:13:47.313696
MEAN_MOTION    = 14.26994914
ECCENTRICITY   = .0140314
INCLINATION    = 98.1981
RA_OF_ASC_NODE = 351.2410
ARG_OF_PERICENTER = 130.6844
MEAN_ANOMALY   = 230.6630

EPHEMERIS_TYPE = 0
CLASSIFICATION_TYPE = U
NORAD_CAT_ID   = 28480
ELEMENT_SET_NO = 999
REV_AT_EPOCH   = 10965
BSTAR          = .6089E-4
MEAN_MOTION_DOT = .124E-5
MEAN_MOTION_DDOT = 0

CCSDS_OMM_VERS = 2.0
CREATION_DATE  = 
ORIGINATOR     = 

OBJECT_NAME    = ARIANE 5 R/B
OBJECT_ID      = 2004-049H
CENTER_NAME    = EARTH
REF_FRAME      = TEME
TIME_SYSTEM    = UTC
MEAN_ELEMENT_THEORY = SGP/SGP4

EPOCH          = 2026-03-17T10:44:09.758688
MEAN_MOTION    = 14.85280003
ECCENTRICITY   = .00833979
INCLINATION    = 98.2639
RA_OF_ASC_NODE = 245.1954
ARG_OF_PERICENTER = 326.6505
MEAN_ANOMALY   = 32.9471

EPHEMERIS_TYPE = 0
CLASSIFICATION_TYPE = U
NORAD_CAT_ID   = 28499
ELEMENT_SET_NO = 999
REV_AT_EPOCH   = 14694
BSTAR          = .8358085E-4
MEAN_MOTION_DOT = .698E-5
MEAN_MOTION_DDOT = 0

CCSDS_OMM_VERS = 2.0
CREATION_DATE  = 
ORIGINATOR     = 

OBJECT_NAME    = CZ-2D R/B
OBJECT_ID      = 2005-024B
CENTER_NAME    = EARTH
REF_FRAME      = TEME
TIME_SYSTEM    = UTC
MEAN_ELEMENT_THEORY = SGP/SGP4

EPOCH          = 2026-03-17T18:55:58.630656
MEAN_MOTION    = 15.60885881
ECCENTRICITY   = .0004433
INCLINATION    = 97.3586
RA_OF_ASC_NODE = 92.2363
ARG_OF_PERICENTER = 24.3625
MEAN_ANOMALY   = 335.7841

EPHEMERIS_TYPE = 0
CLASSIFICATION_TYPE = U
NORAD_CAT_ID   = 28738
ELEMENT_SET_NO = 999
REV_AT_EPOCH   = 14104
BSTAR          = .39929E-3
MEAN_MOTION_DOT = .33342E-3
MEAN_MOTION_DDOT = 0

CCSDS_OMM_VERS = 2.0
CREATION_DATE  = 
ORIGINATOR     = 

OBJECT_NAME    = ALOS (DAICHI)
OBJECT_ID      = 2006-002A
CENTER_NAME    = EARTH
REF_FRAME      = TEME
TIME_SYSTEM    = UTC
MEAN_ELEMENT_THEORY = SGP/SGP4

EPOCH          = 2026-03-17T14:29:45.680352
MEAN_MOTION    = 14.69835564
ECCENTRICITY   = .00007311
INCLINATION    = 98.1231
RA_OF_ASC_NODE = 32.5204
ARG_OF_PERICENTER = 75.2830
MEAN_ANOMALY   = 284.8457

EPHEMERIS_TYPE = 0
CLASSIFICATION_TYPE = U
NORAD_CAT_ID   = 28931
ELEMENT_SET_NO = 999
REV_AT_EPOCH   = 7464
BSTAR          = .21785529E-3
MEAN_MOTION_DOT = .1252E-4
MEAN_MOTION_DDOT = 0

