AQUA                    
1 27424U 02022A   26076.89070262  .00000876  00000+0  18458-3 0  9999
2 27424  98.4188  44.4058 0000705 108.6502 277.1715 14.61996341269931
CZ-4B R/B               
1 27432U 02024C   26076.41896183  .00000031  00000+0  38970-4 0  9991
2 27432  98.8822 129.7861 0050102   2.3402   8.0799 14.14548900230330
MIDORI II (ADEOS-II)    
1 27597U 02056A   26076.36420164  .00000270  00000+0  12399-3 0  9995
2 27597  98.7781  34.8954 0001294  33.7265 326.3998 14.29291076211394
H-2A R/B                
1 27601U 02056E   26076.39401002  .00000227  00000+0  93952-4 0  9991
2 27601  98.3216  36.4669 0070937 137.8889 335.5025 14.33765774215212
CZ-4B R/B               
1 28059U 03049C   26076.84195013  .00000309  00000+0  82547-4 0  9993
2 28059  98.6886  72.0671 0047618 205.5905 154.2934 14.55027789187783
CZ-2C R/B               
1 28222U 04012C   26076.60158837  .00047966  00000+0  47736-3 0  9993
2 28222  97.7215 142.6489 0012963 277.3923  82.5862 15.65474299205513
SL-16 R/B               
1 28353U 04021B   26076.80109887 -.00000260  00000+0 -11065-3 0  9995
2 28353  70.9997 215.4694 0004473 358.9291   1.1821 14.14594515123985
CZ-4B R/B               
1 28415U 04035C   26076.82724039  .00005995  00000+0  21138-3 0  9993
2 28415  97.3484 110.9725 0030225 301.3394  58.4889 15.29206857181150
CZ-2C R/B               
1 28480U 04046B   26076.75957539  .00000124  00000+0  60890-4 0  9990
2 28480  98.1981 351.2410 0140314 130.6844 230.6630 14.26994914109655
ARIANE 5 R/B            
1 28499U 04049H   26076.44733517  .00000698  00000+0  83581-4 0  9995
2 28499  98.2639 245.1954 0083397 326.6505  32.9471 14.85280003146949
CZ-2D R/B               
1 28738U 05024B   26076.78887304  .00033342  00000+0  39929-3 0  9994
2 28738  97.3586  92.2363 0004433  24.3625 335.7841 15.60885881141040
ALOS (DAICHI)           
1 28931U 06002A   26076.60400093  .00001252  00000+0  21786-3 0  9990
2 28931  98.1231  32.5204 0000731  75.2830 284.8457 14.69835564 74641
